NORAD_CAT_ID,OBJECT_NAME,OBJECT_TYPE,EPOCH,MEAN_MOTION,ECCENTRICITY,INCLINATION,RA_OF_ASC_NODE,ARG_OF_PERICENTER,MEAN_ANOMALY,BSTAR,MEAN_MOTION_DOT,MEAN_MOTION_DDOT,TLE_LINE0,TLE_LINE1,TLE_LINE2,SEMIMAJOR_AXIS,PERIOD,APOGEE,PERIGEE,DECAYED
54187.0,STARLINK-5240,PAYLOAD,2022-12-17 14:00:01,15.42869143,0.0001311,53.2173,255.1512,107.3597,143.6877,-0.027929,-0.01137899,0.0,0 STARLINK-5240,1 54187U 22141AG  22351.58335648 -.01137899  00000-0 -27929-1 0  9990,2 54187  53.2173 255.1512 0001311 107.3597 143.6877 15.42869143  1300,6815.783,93.333,438.542,436.755,0.0
54187.0,STARLINK-5240,PAYLOAD,2022-12-17 22:00:00,15.42053663,0.0001225,53.2172,253.5771,112.3885,190.5837,-0.028638,-0.01135303,0.0,0 STARLINK-5240,1 54187U 22141AG  22351.91667824 -.01135303  00000-0 -28638-1 0  9997,2 54187  53.2172 253.5771 0001225 112.3885 190.5837 15.42053663  1307,6818.186,93.382,440.886,439.216,0.0
54187.0,STARLINK-5240,PAYLOAD,2022-12-18 06:00:02,15.41244288,0.0001078,53.2173,252.0039,106.434,247.6111,-0.029576,-0.01140522,0.0,0 STARLINK-5240,1 54187U 22141AG  22352.25002315 -.01140522  00000-0 -29576-1 0  9994,2 54187  53.2173 252.0039 0001078 106.4340 247.6111 15.41244288  8305,6820.573,93.431,443.173,441.703,0.0
54187.0,STARLINK-5240,PAYLOAD,2022-12-18 14:00:01,15.40428435,0.0001101,53.2174,250.4305,107.388,296.6287,-0.030331,-0.01138396,0.0,0 STARLINK-5240,1 54187U 22141AG  22352.58334491 -.01138396  00000-0 -30331-1 0  9990,2 54187  53.2174 250.4305 0001101 107.3880 296.6287 15.40428435  1308,6822.981,93.48,445.597,444.095,0.0
54187.0,STARLINK-5240,PAYLOAD,2022-12-18 22:00:00,15.39616403,0.000119,53.2176,248.8625,96.5403,356.5304,-0.031234,-0.0114088,0.0,0 STARLINK-5240,1 54187U 22141AG  22352.91667824 -.01140880  00000-0 -31234-1 0  9990,2 54187  53.2176 248.8625 0001190  96.5403 356.5304 15.39616403  8400,6825.38,93.53,448.057,446.4330000000001,0.0
54187.0,STARLINK-5240,PAYLOAD,2022-12-19 10:00:00,15.38396992,0.0001152,53.2175,246.511,108.3502,236.4703,-0.03258,-0.01142916,0.0,0 STARLINK-5240,1 54187U 22141AG  22353.41667824 -.01142916  00000-0 -32580-1 0  9993,2 54187  53.2175 246.5110 0001152 108.3502 236.4703 15.38396992  1301,6828.986,93.604,451.638,450.064,0.0
54187.0,STARLINK-5240,PAYLOAD,2022-12-19 22:00:00,15.37172926,0.0001361,53.2176,244.1656,102.8528,131.5179,-0.033706,-0.01136626,0.0,0 STARLINK-5240,1 54187U 22141AG  22353.91667824 -.01136626  00000-0 -33706-1 0  9990,2 54187  53.2176 244.1656 0001361 102.8528 131.5179 15.37172926  8554,6832.611,93.678,455.406,453.546,0.0
54187.0,STARLINK-5240,PAYLOAD,2022-12-20 14:00:01,15.35547696,0.0001182,53.217,241.0435,101.5254,222.1548,-0.035641,-0.01139839,0.0,0 STARLINK-5240,1 54187U 22141AG  22354.58334491 -.01139839  00000-0 -35641-1 0  9994,2 54187  53.2170 241.0435 0001182 101.5254 222.1548 15.35547696  8669,6837.431,93.778,460.104,458.48800000000006,0.0
54187.0,STARLINK-5240,PAYLOAD,2022-12-21 14:00:01,15.33104933,0.0001258,53.2174,236.3743,112.5101,337.8032,-0.038459,-0.01137705,0.0,0 STARLINK-5240,1 54187U 22141AG  22355.58334491 -.01137705  00000-0 -38459-1 0  9995,2 54187  53.2174 236.3743 0001258 112.5101 337.8032 15.33104933  8819,6844.691999999999,93.927,467.418,465.696,0.0
54187.0,STARLINK-5240,PAYLOAD,2022-12-22 14:00:01,15.30664994,0.0001603,53.2173,231.7235,125.1444,82.9993,-0.041599,-0.01139464,0.0,0 STARLINK-5240,1 54187U 22141AG  22356.58334491 -.01139464  00000-0 -41599-1 0  9999,2 54187  53.2173 231.7235 0001603 125.1444  82.9993 15.30664994  8962,6851.964,94.077,474.927,472.731,0.0
54187.0,STARLINK-5240,PAYLOAD,2022-12-22 22:00:00,15.29848946,0.0001576999999999,53.2174,230.179,123.3861,122.0785,-0.0425,-0.01135282,0.0,0 STARLINK-5240,1 54187U 22141AG  22356.91667824 -.01135282  00000-0 -42500-1 0  9992,2 54187  53.2174 230.1790 0001577 123.3861 122.0785 15.29848946  1300,6854.4,94.127,477.346,475.185,0.0
54187.0,STARLINK-5240,PAYLOAD,2022-12-23 14:00:01,15.28219633,0.0001184,53.2169,227.0913,105.2379,211.9368,-0.044582,-0.01132502,0.0,0 STARLINK-5240,1 54187U 22141AG  22357.58334491 -.01132502  00000-0 -44582-1 0  9991,2 54187  53.2169 227.0913 0001184 105.2379 211.9368 15.28219633  9120,6859.271,94.227,481.949,480.324,0.0
54187.0,STARLINK-5240,PAYLOAD,2022-12-23 22:00:01,15.27412723,0.0001341999999999,53.2169,225.5519,120.019,231.6033,-0.04614,-0.01142464,0.0,0 STARLINK-5240,1 54187U 22141AG  22357.91668981 -.01142464  00000-0 -46140-1 0  9992,2 54187  53.2169 225.5519 0001342 120.0190 231.6033 15.27412723  1301,6861.687,94.277,484.473,482.631,0.0
54187.0,STARLINK-5240,PAYLOAD,2022-12-24 06:00:00,15.26588848,0.0001082,53.2166,224.0131,98.7005,286.2687,-0.046168,-0.01117058,0.0,0 STARLINK-5240,1 54187U 22141AG  22358.25001157 -.01117058  00000-0 -46168-1 0  9997,2 54187  53.2166 224.0131 0001082  98.7005 286.2687 15.26588848  9220,6864.156,94.328,486.763,485.278,0.0
54187.0,STARLINK-5240,PAYLOAD,2022-12-24 14:00:01,15.25678106,0.0001052,53.2168,222.475,92.6354,324.7769,-0.018084,-0.00440091,0.0,0 STARLINK-5240,1 54187U 22141AG  22358.58334491 -.00440091  00000-0 -18084-1 0  9994,2 54187  53.2168 222.4750 0001052  92.6354 324.7769 15.25678106  9278,6866.887,94.384,489.474,488.03,0.0
54187.0,STARLINK-5240,PAYLOAD,2022-12-24 22:00:00,15.25412616,0.0001459,53.2146,220.9463,97.5142,351.5067,-0.0014366,-0.00036925,0.0,0 STARLINK-5240,1 54187U 22141AG  22358.91667824 -.00036925  00000-0 -14366-2 0  9997,2 54187  53.2146 220.9463 0001459  97.5142 351.5067 15.25412616  9325,6867.684,94.401,490.551,488.547,0.0
54187.0,STARLINK-5240,PAYLOAD,2022-12-25 14:00:01,15.25333515,0.0001334,53.214,217.875,106.3145,45.6825,0.0010933,0.00027679,0.0,0 STARLINK-5240,1 54187U 22141AG  22359.58334491  .00027679  00000-0  10933-2 0  9992,2 54187  53.2140 217.8750 0001334 106.3145  45.6825 15.25333515  1300,6867.920999999999,94.406,490.702,488.87,0.0
54187.0,STARLINK-5240,PAYLOAD,2022-12-26 00:00:00,15.25326868,0.0001304,53.2142,215.9585,92.8259,188.4569,0.0013762,0.00034957,0.0,0 STARLINK-5240,1 54187U 22141AG  22360.00001157  .00034957  00000-0  13762-2 0  9991,2 54187  53.2142 215.9585 0001304  92.8259 188.4569 15.25326868  1303,6867.941,94.406,490.702,488.911,0.0
54187.0,STARLINK-5240,PAYLOAD,2022-12-26 06:00:00,15.2536687,0.0001243,53.2142,214.8062,96.5394,118.302,-0.0013950999999999,-0.00035824,0.0,0 STARLINK-5240,1 54187U 22141AG  22360.25001157 -.00035824  00000-0 -13951-2 0  9994,2 54187  53.2142 214.8062 0001243  96.5394 118.3020 15.25366870  9527,6867.821,94.404,490.54,488.832,0.0
54187.0,STARLINK-5240,PAYLOAD,2022-12-26 14:00:01,15.2534573,0.0001338,53.2146,213.2702,104.161,142.1174,0.0010023,0.00025348,0.0,0 STARLINK-5240,1 54187U 22141AG  22360.58334491  .00025348  00000-0  10023-2 0  9995,2 54187  53.2146 213.2702 0001338 104.1610 142.1174 15.25345730  1302,6867.884,94.405,490.668,488.831,0.0
54187.0,STARLINK-5240,PAYLOAD,2022-12-26 22:00:00,15.2535117,0.0001333,53.2148,211.7371,92.1388,185.5818,0.0002729,6.637e-05,0.0,0 STARLINK-5240,1 54187U 22141AG  22360.91667824  .00006637  00000-0  27290-3 0  9996,2 54187  53.2148 211.7371 0001333  92.1388 185.5818 15.25351170  9637,6867.868,94.404,490.649,488.818,0.0
54187.0,STARLINK-5240,PAYLOAD,2022-12-27 14:00:01,15.25372917,0.0001274,53.2154,208.6654,102.1589,238.4491,-4.9377e-05,-1.603e-05,0.0,0 STARLINK-5240,1 54187U 22141AG  22361.58334491 -.00001603  00000-0 -49377-4 0  9992,2 54187  53.2154 208.6654 0001274 102.1589 238.4491 15.25372917  1305,6867.803000000001,94.403,490.543,488.793,0.0
54187.0,STARLINK-5240,PAYLOAD,2022-12-27 22:00:00,15.25344642,0.0001173,53.2156,207.1322,90.2695,281.8073,-0.0017373,-0.00044447,0.0,0 STARLINK-5240,1 54187U 22141AG  22361.91667824 -.00044447  00000-0 -17373-2 0  9990,2 54187  53.2156 207.1322 0001173  90.2695 281.8073 15.25344642  1308,6867.888000000001,94.405,490.5580000000001,488.947,0.0
54187.0,STARLINK-5240,PAYLOAD,2022-12-27 23:31:13,15.25361191,0.0001229,53.2165,206.8396,94.9826,265.1314,0.00010096,2.24e-05,0.0,0 STARLINK-5240,1 54187U 22141AG  22361.98001996  .00002240  00000-0  10096-3 0  9998,2 54187  53.2165 206.8396 0001229  94.9826 265.1314 15.25361191  9796,6867.8380000000025,94.404,490.547,488.859,0.0
54187.0,STARLINK-5240,PAYLOAD,2022-12-28 13:40:26,15.25336899,0.0001214,53.2166,204.1244,97.4399,262.6738,-3.8344e-05,-1.32e-05,0.0,0 STARLINK-5240,1 54187U 22141AG  22362.56974687 -.00001320  00000-0 -38344-4 0  9996,2 54187  53.2166 204.1244 0001214  97.4399 262.6738 15.25336899  9651,6867.911,94.405,490.61,488.942,0.0
54187.0,STARLINK-5240,PAYLOAD,2022-12-28 16:49:08,15.25336608,0.0001167999999999,53.2167,203.5209,90.9475,269.1658,-4.3152e-05,-1.442e-05,0.0,0 STARLINK-5240,1 54187U 22141AG  22362.70079356 -.00001442  00000-0 -43152-4 0  9999,2 54187  53.2167 203.5209 0001168  90.9475 269.1658 15.25336608  9906,6867.9119999999975,94.405,490.579,488.975,0.0
54187.0,STARLINK-5240,PAYLOAD,2022-12-29 13:15:43,15.25342174,0.0001026,53.2173,199.5984,99.0562,261.0553,-6.7034e-05,-2.052e-05,0.0,0 STARLINK-5240,1 54187U 22141AG  22363.55258852 -.00002052  00000-0 -67034-4 0  9996,2 54187  53.2173 199.5984 0001026  99.0562 261.0553 15.25342174  9806,6867.895,94.405,490.465,489.055,0.0
54187.0,STARLINK-5240,PAYLOAD,2022-12-30 06:33:37,15.2529612,0.000135,53.2172,196.2798,101.2392,258.8759,0.00038907,9.595e-05,0.0,0 STARLINK-5240,1 54187U 22141AG  22364.27334659  .00009595  00000-0  38907-3 0  9999,2 54187  53.2172 196.2798 0001350 101.2392 258.8759 15.25296120 10149,6868.033,94.408,490.826,488.971,0.0
54187.0,STARLINK-5240,PAYLOAD,2022-12-30 17:34:04,15.2533957,0.000103,53.2172,194.1687,80.0657,280.0459,8.683e-05,1.877e-05,0.0,0 STARLINK-5240,1 54187U 22141AG  22364.73199355  .00001877  00000-0  86830-4 0  9996,2 54187  53.2172 194.1687 0001030  80.0657 280.0459 15.25339570 10215,6867.903,94.405,490.475,489.061,0.0
